0 EUTE 16C (SESAT 1)
1 26243U 00019A   13281.18988926  .00000086  00000-0  10000-3 0  3423
2 26243 001.6029 073.9734 0002469 134.7930 251.0771 01.00271219 49355
0 EUTE 16C (SESAT 1)
1 26243U 00019A   13282.27098644  .00000083  00000-0  10000-3 0  3431
2 26243 001.6050 073.9523 0002662 131.2398 284.9146 01.00272139 49364
0 EUTE 16C (SESAT 1)
1 26243U 00019A   13282.89668229  .00000081  00000-0  10000-3 0  3440
2 26243 001.6066 073.9480 0002495 135.7578 146.2631 01.00271958 49363
0 EUTE 16C (SESAT 1)
1 26243U 00019A   13284.16583910  .00000077  00000-0  10000-3 0  3451
2 26243 001.6096 073.9433 0002510 135.3346 244.8370 01.00272327 49389
0 EUTE 16C (SESAT 1)
1 26243U 00019A   13285.78778722  .00000073  00000-0  10000-3 0  3464
2 26243 001.6131 073.9254 0002538 134.0970 111.5954 01.00272837 49394
0 EUTE 16C (SESAT 1)
1 26243U 00019A   13287.15696466  .00000072  00000-0  10000-3 0  3471
2 26243 001.6166 073.9253 0002750 137.2488 242.6958 01.00273047 49413
0 EUTE 16C (SESAT 1)
1 26243U 00019A   13288.77422406  .00000072  00000-0  10000-3 0  3482
2 26243 001.6200 073.9065 0002801 134.5531 109.2262 01.00273604 49425
0 EUTE 16C (SESAT 1)
1 26243U 00019A   13290.14157013  .00000074  00000-0  10000-3 0  3498
2 26243 001.6231 073.8975 0002850 133.9971 243.3943 01.00274160 49449
0 EUTE 16C (SESAT 1)
1 26243U 00019A   13290.86530738  .00000076  00000-0  10000-3 0  3500
2 26243 001.6249 073.8953 0003130 141.5577 137.1030 01.00274679 49445
0 EUTE 16C (SESAT 1)
1 26243U 00019A   13293.82480633  .00000081  00000-0  10000-3 0  3514
2 26243 001.6324 073.9143 0003096 148.9865 117.9823 01.00271534 49479
